MONOLITH                
1 49052U 21068A   26068.54548855  .00008348  00000+0  53656-3 0  9993
2 49052  37.0220 141.2957 0002679 131.6464 228.4511 15.08010119252226
STARLINK-3297           
1 50159U 21125D   26068.76164687 -.00000207  00000+0  50740-5 0  9998
2 50159  53.2175 258.8095 0001456  97.4511 262.6647 15.08837403236468
